[{"OBJECT_NAME":"SDA_1681","OBJECT_ID":"2025-230T","EPOCH":"2026-03-09T23:10:51.790080","MEAN_MOTION":13.85290807,"ECCENTRICITY":0.00048912,"INCLINATION":81.3003,"RA_OF_ASC_NODE":303.6354,"ARG_OF_PERICENTER":106.2164,"MEAN_ANOMALY":253.9532,"EPHEMERIS_TYPE":0,"CLASSIFICATION_TYPE":"U","NORAD_CAT_ID":65991,"ELEMENT_SET_NO":999,"REV_AT_EPOCH":2008,"BSTAR":0.00014476099,"MEAN_MOTION_DOT":1.76e-6,"MEAN_MOTION_DDOT":0},{"OBJECT_NAME":"COSMOS 970 DEB","OBJECT_ID":"1977-121AT","EPOCH":"2026-03-09T09:58:33.248640","MEAN_MOTION":13.75201082,"ECCENTRICITY":0.00544801,"INCLINATION":65.7703,"RA_OF_ASC_NODE":57.38,"ARG_OF_PERICENTER":94.0539,"MEAN_ANOMALY":58.0139,"EPHEMERIS_TYPE":0,"CLASSIFICATION_TYPE":"U","NORAD_CAT_ID":12865,"ELEMENT_SET_NO":999,"REV_AT_EPOCH":8346,"BSTAR":0.0011301133,"MEAN_MOTION_DOT":1.014e-5,"MEAN_MOTION_DDOT":0}]
